ISS (ZARYA)             
1 25544U 98067A   26101.94100262  .00005402  00000+0  10657-3 0  9996
2 25544  51.6326 267.9482 0006451 301.5882  58.4476 15.48877690561489
CSS (TIANHE)            
1 48274U 21035A   26102.16522189  .00018582  00000+0  20764-3 0  9996
2 48274  41.4686   4.2206 0004971 190.5766 169.4970 15.62300157282845
HTV-X1                  
1 66174U 25241A   26101.90767701  .00005039  00000+0  16903-3 0  9993
2 66174  51.6358 272.9032 0007410 302.2344  57.7919 15.32622094 26032
SZ-21 MODULE            
1 66515U 25246C   26102.08925744  .00032051  00000+0  24645-3 0  9996
2 66515  41.4750 357.3447 0004294 260.2724  99.7634 15.71316130 23327
POISK                   
1 36086U 09060A   26101.94100262  .00005402  00000+0  10657-3 0  9994
2 36086  51.6326 267.9482 0006451 301.5882  58.4476 15.48877690560571
ISS (NAUKA)             
1 49044U 21066A   26101.94100262  .00005402  00000+0  10657-3 0  9992
2 49044  51.6326 267.9482 0006451 301.5882  58.4476 15.48877690560614
FREGAT DEB              
1 49271U 11037PF  26100.98879895  .00003799  00000+0  56935-2 0  9994
2 49271  51.6392 203.7553 0950788 133.4539 234.9499 12.40984828216703
CSS (WENTIAN)           
1 53239U 22085A   26102.16522189  .00018582  00000+0  20764-3 0  9999
2 53239  41.4686   4.2206 0004971 190.5766 169.4970 15.62300157283135
CSS (MENGTIAN)          
1 54216U 22143A   26102.16522189  .00018582  00000+0  20764-3 0  9990
2 54216  41.4686   4.2206 0004971 190.5766 169.4970 15.62300157283276
TIANZHOU-9              
1 64786U 25149A   26102.16522189  .00018582  00000+0  20764-3 0  9992
2 64786  41.4686   4.2206 0004971 190.5766 169.4970 15.62300157283279
PROGRESS-MS 32          
1 65586U 25204A   26101.94100262  .00005402  00000+0  10657-3 0  9999
2 65586  51.6326 267.9482 0006451 301.5882  58.4476 15.48877690554504
YOTSUBA-KULOVER         
1 65941U 98067XN  26102.10518155  .01359606  13034-2  11900-2 0  9998
2 65941  51.6093 241.0715 0011347 312.3245  47.6808 16.12585561 28820
BOTAN                   
1 65943U 98067XQ  26102.25743384  .00890593  44878-3  99150-3 0  9999
2 65943  51.6144 240.6256 0011430 310.7999  49.2022 16.08772397 28843
HRC MONOBLOCK CAMERA    
1 66052U 98067XR  26101.86122880  .00046776  00000+0  45051-3 0  9991
2 66052  51.6264 257.6564 0003938 263.8081  96.2466 15.66040109 27588
SHENZHOU-22             
1 66645U 25272A   26102.16522189  .00018582  00000+0  20764-3 0  9995
2 66645  41.4686   4.2206 0004971 190.5766 169.4970 15.62300157283275
SOYUZ-MS 28             
1 66664U 25275A   26101.94100262  .00005402  00000+0  10657-3 0  9995
2 66664  51.6326 267.9482 0006451 301.5882  58.4476 15.48877690560857
