[{"OBJECT_NAME":"ISS (ZARYA)","OBJECT_ID":"1998-067A","EPOCH":"2026-04-11T22:35:02.626368","MEAN_MOTION":15.4887769,"ECCENTRICITY":0.00064516,"INCLINATION":51.6326,"RA_OF_ASC_NODE":267.9482,"ARG_OF_PERICENTER":301.5882,"MEAN_ANOMALY":58.4476,"EPHEMERIS_TYPE":0,"CLASSIFICATION_TYPE":"U","NORAD_CAT_ID":25544,"ELEMENT_SET_NO":999,"REV_AT_EPOCH":56148,"BSTAR":0.00010656761,"MEAN_MOTION_DOT":5.402e-5,"MEAN_MOTION_DDOT":0},{"OBJECT_NAME":"POISK","OBJECT_ID":"2009-060A","EPOCH":"2026-04-11T22:35:02.626368","MEAN_MOTION":15.4887769,"ECCENTRICITY":0.00064516,"INCLINATION":51.6326,"RA_OF_ASC_NODE":267.9482,"ARG_OF_PERICENTER":301.5882,"MEAN_ANOMALY":58.4476,"EPHEMERIS_TYPE":0,"CLASSIFICATION_TYPE":"U","NORAD_CAT_ID":36086,"ELEMENT_SET_NO":999,"REV_AT_EPOCH":56057,"BSTAR":0.00010656761,"MEAN_MOTION_DOT":5.402e-5,"MEAN_MOTION_DDOT":0},{"OBJECT_NAME":"CSS (TIANHE)","OBJECT_ID":"2021-035A","EPOCH":"2026-04-12T03:57:55.171296","MEAN_MOTION":15.62300157,"ECCENTRICITY":0.00049717,"INCLINATION":41.4686,"RA_OF_ASC_NODE":4.2206,"ARG_OF_PERICENTER":190.5766,"MEAN_ANOMALY":169.497,"EPHEMERIS_TYPE":0,"CLASSIFICATION_TYPE":"U","NORAD_CAT_ID":48274,"ELEMENT_SET_NO":999,"REV_AT_EPOCH":28284,"BSTAR":0.00020763917,"MEAN_MOTION_DOT":0.00018582,"MEAN_MOTION_DDOT":0},{"OBJECT_NAME":"ISS (NAUKA)","OBJECT_ID":"2021-066A","EPOCH":"2026-04-11T22:35:02.626368","MEAN_MOTION":15.4887769,"ECCENTRICITY":0.00064516,"INCLINATION":51.6326,"RA_OF_ASC_NODE":267.9482,"ARG_OF_PERICENTER":301.5882,"MEAN_ANOMALY":58.4476,"EPHEMERIS_TYPE":0,"CLASSIFICATION_TYPE":"U","NORAD_CAT_ID":49044,"ELEMENT_SET_NO":999,"REV_AT_EPOCH":56061,"BSTAR":0.00010656761,"MEAN_MOTION_DOT":5.402e-5,"MEAN_MOTION_DDOT":0},{"OBJECT_NAME":"FREGAT DEB","OBJECT_ID":"2011-037PF","EPOCH":"2026-04-10T23:43:52.229280","MEAN_MOTION":12.40984828,"ECCENTRICITY":0.09507887,"INCLINATION":51.6392,"RA_OF_ASC_NODE":203.7553,"ARG_OF_PERICENTER":133.4539,"MEAN_ANOMALY":234.9499,"EPHEMERIS_TYPE":0,"CLASSIFICATION_TYPE":"U","NORAD_CAT_ID":49271,"ELEMENT_SET_NO":999,"REV_AT_EPOCH":21670,"BSTAR":0.005693483,"MEAN_MOTION_DOT":3.799e-5,"MEAN_MOTION_DDOT":0},{"OBJECT_NAME":"CSS (WENTIAN)","OBJECT_ID":"2022-085A","EPOCH":"2026-04-12T03:57:55.171296","MEAN_MOTION":15.62300157,"ECCENTRICITY":0.00049717,"INCLINATION":41.4686,"RA_OF_ASC_NODE":4.2206,"ARG_OF_PERICENTER":190.5766,"MEAN_ANOMALY":169.497,"EPHEMERIS_TYPE":0,"CLASSIFICATION_TYPE":"U","NORAD_CAT_ID":53239,"ELEMENT_SET_NO":999,"REV_AT_EPOCH":28313,"BSTAR":0.00020763917,"MEAN_MOTION_DOT":0.00018582,"MEAN_MOTION_DDOT":0},{"OBJECT_NAME":"CSS (MENGTIAN)","OBJECT_ID":"2022-143A","EPOCH":"2026-04-12T03:57:55.171296","MEAN_MOTION":15.62300157,"ECCENTRICITY":0.00049717,"INCLINATION":41.4686,"RA_OF_ASC_NODE":4.2206,"ARG_OF_PERICENTER":190.5766,"MEAN_ANOMALY":169.497,"EPHEMERIS_TYPE":0,"CLASSIFICATION_TYPE":"U","NORAD_CAT_ID":54216,"ELEMENT_SET_NO":999,"REV_AT_EPOCH":28327,"BSTAR":0.00020763917,"MEAN_MOTION_DOT":0.00018582,"MEAN_MOTION_DDOT":0},{"OBJECT_NAME":"TIANZHOU-9","OBJECT_ID":"2025-149A","EPOCH":"2026-04-12T03:57:55.171296","MEAN_MOTION":15.62300157,"ECCENTRICITY":0.00049717,"INCLINATION":41.4686,"RA_OF_ASC_NODE":4.2206,"ARG_OF_PERICENTER":190.5766,"MEAN_ANOMALY":169.497,"EPHEMERIS_TYPE":0,"CLASSIFICATION_TYPE":"U","NORAD_CAT_ID":64786,"ELEMENT_SET_NO":999,"REV_AT_EPOCH":28327,"BSTAR":0.00020763917,"MEAN_MOTION_DOT":0.00018582,"MEAN_MOTION_DDOT":0},{"OBJECT_NAME":"PROGRESS-MS 32","OBJECT_ID":"2025-204A","EPOCH":"2026-04-11T22:35:02.626368","MEAN_MOTION":15.4887769,"ECCENTRICITY":0.00064516,"INCLINATION":51.6326,"RA_OF_ASC_NODE":267.9482,"ARG_OF_PERICENTER":301.5882,"MEAN_ANOMALY":58.4476,"EPHEMERIS_TYPE":0,"CLASSIFICATION_TYPE":"U","NORAD_CAT_ID":65586,"ELEMENT_SET_NO":999,"REV_AT_EPOCH":55450,"BSTAR":0.00010656761,"MEAN_MOTION_DOT":5.402e-5,"MEAN_MOTION_DDOT":0},{"OBJECT_NAME":"YOTSUBA-KULOVER","OBJECT_ID":"1998-067XN","EPOCH":"2026-04-12T02:31:27.685920","MEAN_MOTION":16.12585561,"ECCENTRICITY":0.00113479,"INCLINATION":51.6093,"RA_OF_ASC_NODE":241.0715,"ARG_OF_PERICENTER":312.3245,"MEAN_ANOMALY":47.6808,"EPHEMERIS_TYPE":0,"CLASSIFICATION_TYPE":"U","NORAD_CAT_ID":65941,"ELEMENT_SET_NO":999,"REV_AT_EPOCH":2882,"BSTAR":0.0011899863,"MEAN_MOTION_DOT":0.01359606,"MEAN_MOTION_DDOT":0.0013034139},{"OBJECT_NAME":"BOTAN","OBJECT_ID":"1998-067XQ","EPOCH":"2026-04-12T06:10:42.283776","MEAN_MOTION":16.08772397,"ECCENTRICITY":0.00114308,"INCLINATION":51.6144,"RA_OF_ASC_NODE":240.6256,"ARG_OF_PERICENTER":310.7999,"MEAN_ANOMALY":49.2022,"EPHEMERIS_TYPE":0,"CLASSIFICATION_TYPE":"U","NORAD_CAT_ID":65943,"ELEMENT_SET_NO":999,"REV_AT_EPOCH":2884,"BSTAR":0.00099149551,"MEAN_MOTION_DOT":0.00890593,"MEAN_MOTION_DDOT":0.00044878091},{"OBJECT_NAME":"HRC MONOBLOCK CAMERA","OBJECT_ID":"1998-067XR","EPOCH":"2026-04-11T20:40:10.168320","MEAN_MOTION":15.66040109,"ECCENTRICITY":0.00039387,"INCLINATION":51.6264,"RA_OF_ASC_NODE":257.6564,"ARG_OF_PERICENTER":263.8081,"MEAN_ANOMALY":96.2466,"EPHEMERIS_TYPE":0,"CLASSIFICATION_TYPE":"U","NORAD_CAT_ID":66052,"ELEMENT_SET_NO":999,"REV_AT_EPOCH":2758,"BSTAR":0.00045050874,"MEAN_MOTION_DOT":0.00046776,"MEAN_MOTION_DDOT":0},{"OBJECT_NAME":"HTV-X1","OBJECT_ID":"2025-241A","EPOCH":"2026-04-11T21:47:03.293664","MEAN_MOTION":15.32622094,"ECCENTRICITY":0.000741,"INCLINATION":51.6358,"RA_OF_ASC_NODE":272.9032,"ARG_OF_PERICENTER":302.2344,"MEAN_ANOMALY":57.7919,"EPHEMERIS_TYPE":0,"CLASSIFICATION_TYPE":"U","NORAD_CAT_ID":66174,"ELEMENT_SET_NO":999,"REV_AT_EPOCH":2603,"BSTAR":0.00016903,"MEAN_MOTION_DOT":5.039e-5,"MEAN_MOTION_DDOT":0},{"OBJECT_NAME":"SZ-21 MODULE","OBJECT_ID":"2025-246C","EPOCH":"2026-04-12T02:08:31.842816","MEAN_MOTION":15.7131613,"ECCENTRICITY":0.00042948,"INCLINATION":41.475,"RA_OF_ASC_NODE":357.3447,"ARG_OF_PERICENTER":260.2724,"MEAN_ANOMALY":99.7634,"EPHEMERIS_TYPE":0,"CLASSIFICATION_TYPE":"U","NORAD_CAT_ID":66515,"ELEMENT_SET_NO":999,"REV_AT_EPOCH":2332,"BSTAR":0.00024644966,"MEAN_MOTION_DOT":0.00032051,"MEAN_MOTION_DDOT":0},{"OBJECT_NAME":"SHENZHOU-22","OBJECT_ID":"2025-272A","EPOCH":"2026-04-12T03:57:55.171296","MEAN_MOTION":15.62300157,"ECCENTRICITY":0.00049717,"INCLINATION":41.4686,"RA_OF_ASC_NODE":4.2206,"ARG_OF_PERICENTER":190.5766,"MEAN_ANOMALY":169.497,"EPHEMERIS_TYPE":0,"CLASSIFICATION_TYPE":"U","NORAD_CAT_ID":66645,"ELEMENT_SET_NO":999,"REV_AT_EPOCH":28327,"BSTAR":0.00020763917,"MEAN_MOTION_DOT":0.00018582,"MEAN_MOTION_DDOT":0},{"OBJECT_NAME":"SOYUZ-MS 28","OBJECT_ID":"2025-275A","EPOCH":"2026-04-11T22:35:02.626368","MEAN_MOTION":15.4887769,"ECCENTRICITY":0.00064516,"INCLINATION":51.6326,"RA_OF_ASC_NODE":267.9482,"ARG_OF_PERICENTER":301.5882,"MEAN_ANOMALY":58.4476,"EPHEMERIS_TYPE":0,"CLASSIFICATION_TYPE":"U","NORAD_CAT_ID":66664,"ELEMENT_SET_NO":999,"REV_AT_EPOCH":56085,"BSTAR":0.00010656761,"MEAN_MOTION_DOT":5.402e-5,"MEAN_MOTION_DDOT":0}]
